{
    "links": {
        "self": "http://www.neowsapp.com/rest/v1/neo/3694782?api_key=iIulBulltgU6a56xZRHN4H3l9WmuAYTsLGpBGhQ2"
    },
    "id": "3694782",
    "neo_reference_id": "3694782",
    "name": "(2014 UK115)",
    "designation": "2014 UK115",
    "nasa_jpl_url": "http://ssd.jpl.nasa.gov/sbdb.cgi?sstr=3694782",
    "absolute_magnitude_h": 24.7,
    "estimated_diameter": {
        "kilometers": {
            "estimated_diameter_min": 0.0305179233,
            "estimated_diameter_max": 0.0682401509
        },
        "meters": {
            "estimated_diameter_min": 30.5179232594,
            "estimated_diameter_max": 68.2401509401
        },
        "miles": {
            "estimated_diameter_min": 0.0189629525,
            "estimated_diameter_max": 0.0424024508
        },
        "feet": {
            "estimated_diameter_min": 100.1244233463,
            "estimated_diameter_max": 223.8850168104
        }
    },
    "is_potentially_hazardous_asteroid": false,
    "close_approach_data": [
        {
            "close_approach_date": "2014-10-26",
            "close_approach_date_full": "2014-Oct-26 21:12",
            "epoch_date_close_approach": 1414357920000,
            "relative_velocity": {
                "kilometers_per_second": "11.818095592",
                "kilometers_per_hour": "42545.1441311143",
                "miles_per_hour": "26435.8980296916"
            },
            "miss_distance": {
                "astronomical": "0.0984586323",
                "lunar": "38.3004079647",
                "kilometers": "14729201.675193201",
                "miles": "9152301.5231041338"
            },
            "orbiting_body": "Earth"
        }
    ],
    "orbital_data": {
        "orbit_id": "5",
        "orbit_determination_date": "2019-07-19 05:25:53",
        "first_observation_date": "2014-10-26",
        "last_observation_date": "2014-10-29",
        "data_arc_in_days": 3,
        "observations_used": 22,
        "orbit_uncertainty": "8",
        "minimum_orbit_intersection": ".0966912",
        "jupiter_tisserand_invariant": "4.660",
        "epoch_osculation": "2456958.5",
        "eccentricity": ".221528620472524",
        "semi_major_axis": "1.397973805608092",
        "inclination": "21.93108548262169",
        "ascending_node_longitude": "213.0338430833384",
        "orbital_period": "603.7358675595934",
        "perihelion_distance": "1.088282596995007",
        "perihelion_argument": "189.2725365951479",
        "aphelion_distance": "1.707665014221177",
        "perihelion_time": "2456965.710480336764",
        "mean_anomaly": "355.7004825111226",
        "mean_motion": ".5962872496795384",
        "equinox": "J2000",
        "orbit_class": {
            "orbit_class_type": "AMO",
            "orbit_class_description": "Near-Earth asteroid orbits similar to that of 1221 Amor",
            "orbit_class_range": "1.017 AU < q (perihelion) < 1.3 AU"
        }
    },
    "is_sentry_object": false
}